start=new Date('2023-02-19T00:00:00.000Z').valueOf();
sats=[{"LAUNCH_DATE":"2022-01-06","TLE_LINE2":"2 50832  53.2132 144.5372 0000895 126.8909 233.2165 15.08826557 63197","NORAD_CAT_ID":"50832","OBJECT_ID":"2022-001AF","SEMIMAJOR_AXIS":"6917.921","COUNTRY_CODE":"US","SITE":"AFETR","REV_AT_EPOCH":"6319","CENTER_NAME":"EARTH","CLASSIFICATION_TYPE":"U","MEAN_ELEMENT_THEORY":"SGP4","ECCENTRICITY":"0.00008950","EPOCH":"2023-02-18T16:38:58.273728","DECAY_DATE":null,"BSTAR":"0.00194410000000","GP_ID":"225957023","MEAN_ANOMALY":"233.2165","PERIOD":"95.438","EPHEMERIS_TYPE":"0","RA_OF_ASC_NODE":"144.5372","OBJECT_TYPE":"PAYLOAD","ELEMENT_SET_NO":"999","TLE_LINE1":"1 50832U 22001AF  23049.69373002  .00030776  00000-0  19441-2 0  9995","MEAN_MOTION_DOT":"0.00030776","PERIAPSIS":"539.167","MEAN_MOTION":"15.08826557","APOAPSIS":"540.406","REF_FRAME":"TEME","TIME_SYSTEM":"UTC","MEAN_MOTION_DDOT":"0.0000000000000","OBJECT_NAME":"STARLINK-3328","ARG_OF_PERICENTER":"126.8909","FILE":"3808488","INCLINATION":"53.2132","RCS_SIZE":"LARGE"},{"RCS_SIZE":"LARGE","INCLINATION":"53.2146","FILE":"3808462","ARG_OF_PERICENTER":"34.9081","MEAN_MOTION_DDOT":"0.0000000000000","OBJECT_NAME":"STARLINK-3316","TIME_SYSTEM":"UTC","REF_FRAME":"TEME","APOAPSIS":"534.355","PERIAPSIS":"530.354","MEAN_MOTION":"15.11261331","MEAN_MOTION_DOT":"0.00051458","ELEMENT_SET_NO":"999","TLE_LINE1":"1 50833U 22001AG  23049.55482700  .00051458  00000-0  30199-2 0  9990","OBJECT_TYPE":"PAYLOAD","RA_OF_ASC_NODE":"134.9403","EPHEMERIS_TYPE":"0","PERIOD":"95.285","MEAN_ANOMALY":"325.2102","GP_ID":"225957096","BSTAR":"0.00301990000000","DECAY_DATE":null,"ECCENTRICITY":"0.00028950","EPOCH":"2023-02-18T13:18:57.052800","MEAN_ELEMENT_THEORY":"SGP4","CLASSIFICATION_TYPE":"U","REV_AT_EPOCH":"6336","CENTER_NAME":"EARTH","COUNTRY_CODE":"US","SITE":"AFETR","SEMIMAJOR_AXIS":"6910.489","OBJECT_ID":"2022-001AG","NORAD_CAT_ID":"50833","TLE_LINE2":"2 50833  53.2146 134.9403 0002895  34.9081 325.2102 15.11261331 63362","LAUNCH_DATE":"2022-01-06"},{"MEAN_MOTION_DDOT":"0.0000000000000","OBJECT_NAME":"STARLINK-3331","ARG_OF_PERICENTER":"71.4896","TIME_SYSTEM":"UTC","REF_FRAME":"TEME","APOAPSIS":"540.410","RCS_SIZE":"LARGE","INCLINATION":"53.2150","FILE":"3807124","OBJECT_TYPE":"PAYLOAD","TLE_LINE1":"1 50834U 22001AH  23049.55020725 -.00002609  00000-0 -14592-3 0  9992","ELEMENT_SET_NO":"999","RA_OF_ASC_NODE":"145.1786","PERIOD":"95.438","EPHEMERIS_TYPE":"0","MEAN_MOTION_DOT":"-0.00002609","PERIAPSIS":"539.133","MEAN_MOTION":"15.08831434","MEAN_ELEMENT_THEORY":"SGP4","REV_AT_EPOCH":"6191","CENTER_NAME":"EARTH","CLASSIFICATION_TYPE":"U","BSTAR":"-0.00014592000000","GP_ID":"225925348","MEAN_ANOMALY":"288.6196","ECCENTRICITY":"0.00009230","EPOCH":"2023-02-18T13:12:17.906400","DECAY_DATE":null,"OBJECT_ID":"2022-001AH","NORAD_CAT_ID":"50834","TLE_LINE2":"2 50834  53.2150 145.1786 0000923  71.4896 288.6196 15.08831434 61913","LAUNCH_DATE":"2022-01-06","COUNTRY_CODE":"US","SITE":"AFETR","SEMIMAJOR_AXIS":"6917.907"},{"EPHEMERIS_TYPE":"0","PERIOD":"95.438","RA_OF_ASC_NODE":"145.2100","ELEMENT_SET_NO":"999","TLE_LINE1":"1 50835U 22001AJ  23049.54284880 -.00000753  00000-0 -29251-4 0  9993","OBJECT_TYPE":"PAYLOAD","MEAN_MOTION":"15.08832839","PERIAPSIS":"538.803","MEAN_MOTION_DOT":"-0.00000753","APOAPSIS":"540.732","TIME_SYSTEM":"UTC","REF_FRAME":"TEME","OBJECT_NAME":"STARLINK-3310","MEAN_MOTION_DDOT":"0.0000000000000","ARG_OF_PERICENTER":"75.2469","FILE":"3807124","INCLINATION":"53.2150","RCS_SIZE":"LARGE","LAUNCH_DATE":"2022-01-06","TLE_LINE2":"2 50835  53.2150 145.2100 0001394  75.2469 284.8678 15.08832839 61919","NORAD_CAT_ID":"50835","OBJECT_ID":"2022-001AJ","SEMIMAJOR_AXIS":"6917.902","SITE":"AFETR","COUNTRY_CODE":"US","CLASSIFICATION_TYPE":"U","CENTER_NAME":"EARTH","REV_AT_EPOCH":"6191","MEAN_ELEMENT_THEORY":"SGP4","DECAY_DATE":null,"ECCENTRICITY":"0.00013940","EPOCH":"2023-02-18T13:01:42.136320","BSTAR":"-0.00002925100000","GP_ID":"225924112","MEAN_ANOMALY":"284.8678"},{"GP_ID":"225924359","MEAN_ANOMALY":"274.0428","BSTAR":"0.00184630000000","DECAY_DATE":null,"EPOCH":"2023-02-18T13:17:35.997504","ECCENTRICITY":"0.00004350","MEAN_ELEMENT_THEORY":"SGP4","CLASSIFICATION_TYPE":"U","REV_AT_EPOCH":"6181","CENTER_NAME":"EARTH","COUNTRY_CODE":"US","SITE":"AFETR","SEMIMAJOR_AXIS":"6917.924","OBJECT_ID":"2022-001AK","LAUNCH_DATE":"2022-01-06","TLE_LINE2":"2 50836  53.2133 145.1637 0000435  86.0614 274.0428 15.08825712 61817","NORAD_CAT_ID":"50836","RCS_SIZE":"LARGE","INCLINATION":"53.2133","FILE":"3807124","OBJECT_NAME":"STARLINK-3330","MEAN_MOTION_DDOT":"0.0000000000000","ARG_OF_PERICENTER":"86.0614","TIME_SYSTEM":"UTC","REF_FRAME":"TEME","APOAPSIS":"540.090","MEAN_MOTION":"15.08825712","PERIAPSIS":"539.488","MEAN_MOTION_DOT":"0.00029207","TLE_LINE1":"1 50836U 22001AK  23049.55388886  .00029207  00000-0  18463-2 0  9990","ELEMENT_SET_NO":"999","OBJECT_TYPE":"PAYLOAD","RA_OF_ASC_NODE":"145.1637","EPHEMERIS_TYPE":"0","PERIOD":"95.438"},{"FILE":"3808468","RCS_SIZE":"LARGE","INCLINATION":"53.2147","APOAPSIS":"540.555","OBJECT_NAME":"STARLINK-3318","MEAN_MOTION_DDOT":"0.0000000000000","ARG_OF_PERICENTER":"83.8427","TIME_SYSTEM":"UTC","REF_FRAME":"TEME","MEAN_MOTION_DOT":"0.00027130","MEAN_MOTION":"15.08845269","PERIAPSIS":"538.903","RA_OF_ASC_NODE":"134.4479","PERIOD":"95.437","EPHEMERIS_TYPE":"0","OBJECT_TYPE":"PAYLOAD","TLE_LINE1":"1 50837U 22001AL  23049.71304684  .00027130  00000-0  17159-2 0  9997","ELEMENT_SET_NO":"999","EPOCH":"2023-02-18T17:06:47.246976","ECCENTRICITY":"0.00011940","DECAY_DATE":null,"GP_ID":"225957695","BSTAR":"0.00171590000000","MEAN_ANOMALY":"276.2701","REV_AT_EPOCH":"6328","CENTER_NAME":"EARTH","CLASSIFICATION_TYPE":"U","MEAN_ELEMENT_THEORY":"SGP4","SITE":"AFETR","COUNTRY_CODE":"US","SEMIMAJOR_AXIS":"6917.864","OBJECT_ID":"2022-001AL","LAUNCH_DATE":"2022-01-06","TLE_LINE2":"2 50837  53.2147 134.4479 0001194  83.8427 276.2701 15.08845269 63288","NORAD_CAT_ID":"50837"},{"PERIAPSIS":"526.997","MEAN_MOTION":"15.12644161","MEAN_MOTION_DOT":"0.00039754","RA_OF_ASC_NODE":"144.0048","EPHEMERIS_TYPE":"0","PERIOD":"95.198","ELEMENT_SET_NO":"999","TLE_LINE1":"1 50838U 22001AM  23049.65013318  .00039754  00000-0  22528-2 0  9993","OBJECT_TYPE":"PAYLOAD","FILE":"3808468","RCS_SIZE":"LARGE","INCLINATION":"53.2156","APOAPSIS":"529.287","ARG_OF_PERICENTER":"135.1871","MEAN_MOTION_DDOT":"0.0000000000000","OBJECT_NAME":"STARLINK-3322","TIME_SYSTEM":"UTC","REF_FRAME":"TEME","COUNTRY_CODE":"US","SITE":"AFETR","SEMIMAJOR_AXIS":"6906.277","OBJECT_ID":"2022-001AM","NORAD_CAT_ID":"50838","TLE_LINE2":"2 50838  53.2156 144.0048 0001658 135.1871 224.9257 15.12644161 63141","LAUNCH_DATE":"2022-01-06","DECAY_DATE":null,"EPOCH":"2023-02-18T15:36:11.506752","ECCENTRICITY":"0.00016580","BSTAR":"0.00225280000000","GP_ID":"225957704","MEAN_ANOMALY":"224.9257","CLASSIFICATION_TYPE":"U","CENTER_NAME":"EARTH","REV_AT_EPOCH":"6314","MEAN_ELEMENT_THEORY":"SGP4"},{"NORAD_CAT_ID":"50839","TLE_LINE2":"2 50839  53.2145 144.3693 0001759  99.5588 260.5603 15.08831809 63210","LAUNCH_DATE":"2022-01-06","OBJECT_ID":"2022-001AN","SEMIMAJOR_AXIS":"6917.905","COUNTRY_CODE":"US","SITE":"AFETR","MEAN_ELEMENT_THEORY":"SGP4","CLASSIFICATION_TYPE":"U","REV_AT_EPOCH":"6321","CENTER_NAME":"EARTH","BSTAR":"0.00149630000000","GP_ID":"225957208","MEAN_ANOMALY":"260.5603","DECAY_DATE":null,"EPOCH":"2023-02-18T17:31:58.096992","ECCENTRICITY":"0.00017590","TLE_LINE1":"1 50839U 22001AN  23049.73053353  .00023601  00000-0  14963-2 0  9994","ELEMENT_SET_NO":"999","OBJECT_TYPE":"PAYLOAD","EPHEMERIS_TYPE":"0","PERIOD":"95.438","RA_OF_ASC_NODE":"144.3693","PERIAPSIS":"538.554","MEAN_MOTION":"15.08831809","MEAN_MOTION_DOT":"0.00023601","TIME_SYSTEM":"UTC","REF_FRAME":"TEME","ARG_OF_PERICENTER":"99.5588","MEAN_MOTION_DDOT":"0.0000000000000","OBJECT_NAME":"STARLINK-3320","APOAPSIS":"540.987","INCLINATION":"53.2145","RCS_SIZE":"LARGE","FILE":"3808469"},{"CENTER_NAME":"EARTH","REV_AT_EPOCH":"6190","CLASSIFICATION_TYPE":"U","MEAN_ELEMENT_THEORY":"SGP4","EPOCH":"2023-02-18T12:40:30.217728","ECCENTRICITY":"0.00016670","DECAY_DATE":null,"BSTAR":"-0.00013396000000","GP_ID":"225923865","MEAN_ANOMALY":"257.8924","NORAD_CAT_ID":"50840","TLE_LINE2":"2 50840  53.2173 145.2773 0001667 102.2255 257.8924 15.08837268 61907","LAUNCH_DATE":"2022-01-06","OBJECT_ID":"2022-001AP","SEMIMAJOR_AXIS":"6917.889","SITE":"AFETR","COUNTRY_CODE":"US","APOAPSIS":"540.907","REF_FRAME":"TEME","TIME_SYSTEM":"UTC","ARG_OF_PERICENTER":"102.2255","MEAN_MOTION_DDOT":"0.0000000000000","OBJECT_NAME":"STARLINK-3295","FILE":"3807124","INCLINATION":"53.2173","RCS_SIZE":"LARGE","PERIOD":"95.438","EPHEMERIS_TYPE":"0","RA_OF_ASC_NODE":"145.2773","OBJECT_TYPE":"PAYLOAD","ELEMENT_SET_NO":"999","TLE_LINE1":"1 50840U 22001AP  23049.52812752 -.00002419  00000-0 -13396-3 0  9995","MEAN_MOTION_DOT":"-0.00002419","MEAN_MOTION":"15.08837268","PERIAPSIS":"538.601"},{"EPOCH":"2023-02-18T12:56:24.100512","ECCENTRICITY":"0.00005620","DECAY_DATE":null,"MEAN_ANOMALY":"284.7457","GP_ID":"225925113","BSTAR":"0.00049057000000","CENTER_NAME":"EARTH","REV_AT_EPOCH":"6191","CLASSIFICATION_TYPE":"U","MEAN_ELEMENT_THEORY":"SGP4","SITE":"AFETR","COUNTRY_CODE":"US","SEMIMAJOR_AXIS":"6917.932","OBJECT_ID":"2022-001AQ","NORAD_CAT_ID":"50841","TLE_LINE2":"2 50841  53.2151 145.2321 0000562  75.3597 284.7457 15.08823148 61918","LAUNCH_DATE":"2022-01-06","FILE":"3807124","RCS_SIZE":"LARGE","INCLINATION":"53.2151","APOAPSIS":"540.186","MEAN_MOTION_DDOT":"0.0000000000000","OBJECT_NAME":"STARLINK-3300","ARG_OF_PERICENTER":"75.3597","TIME_SYSTEM":"UTC","REF_FRAME":"TEME","MEAN_MOTION_DOT":"0.00007525","MEAN_MOTION":"15.08823148","PERIAPSIS":"539.408","RA_OF_ASC_NODE":"145.2321","PERIOD":"95.439","EPHEMERIS_TYPE":"0","OBJECT_TYPE":"PAYLOAD","TLE_LINE1":"1 50841U 22001AQ  23049.53916783  .00007525  00000-0  49057-3 0  9990","ELEMENT_SET_NO":"999"}];
